[
  {
    "COMMENT": "GENERATED VIA SPACETRACK.ORG API",
    "ORIGINATOR": "18 SPCS",
    "NORAD_CAT_ID": "26997",
    "OBJECT_NAME": "JASON",
    "OBJECT_TYPE": "PAYLOAD",
    "CLASSIFICATION_TYPE": "U",
    "INTLDES": "01055A",
    "EPOCH": "2023-04-26 20:15:26",
    "EPOCH_MICROSECONDS": "61696",
    "MEAN_MOTION": "12.84021294",
    "ECCENTRICITY": "0.0006881",
    "INCLINATION": "66.04",
    "RA_OF_ASC_NODE": "310.4531",
    "ARG_OF_PERICENTER": "263.9734",
    "MEAN_ANOMALY": "107.8038",
    "EPHEMERIS_TYPE": "0",
    "ELEMENT_SET_NO": "999",
    "REV_AT_EPOCH": "132",
    "BSTAR": "0.00020515",
    "MEAN_MOTION_DOT": "-0.00000012",
    "MEAN_MOTION_DDOT": "0",
    "FILE": "3894261",
    "TLE_LINE0": "0 JASON",
    "TLE_LINE1": "1 26997U 01055A   23116.84405164 -.00000012  00000-0  20515-3 0  9999",
    "TLE_LINE2": "2 26997  66.0400 310.4531 0006881 263.9734 107.8038 12.84021294  1321",
    "OBJECT_ID": "2001-055A",
    "OBJECT_NUMBER": "26997",
    "SEMIMAJOR_AXIS": "7703.481",
    "PERIOD": "112.148",
    "APOGEE": "1330.647",
    "PERIGEE": "1320.045",
    "DECAYED": "0"
  },
  {
    "COMMENT": "GENERATED VIA SPACETRACK.ORG API",
    "ORIGINATOR": "18 SPCS",
    "NORAD_CAT_ID": "26997",
    "OBJECT_NAME": "JASON",
    "OBJECT_TYPE": "PAYLOAD",
    "CLASSIFICATION_TYPE": "U",
    "INTLDES": "01055A",
    "EPOCH": "2023-04-27 11:11:57",
    "EPOCH_MICROSECONDS": "971616",
    "MEAN_MOTION": "12.84021378",
    "ECCENTRICITY": "0.0006872",
    "INCLINATION": "66.0399",
    "RA_OF_ASC_NODE": "309.1525",
    "ARG_OF_PERICENTER": "264.0077",
    "MEAN_ANOMALY": "105.4016",
    "EPHEMERIS_TYPE": "0",
    "ELEMENT_SET_NO": "999",
    "REV_AT_EPOCH": "140",
    "BSTAR": "0.00022274",
    "MEAN_MOTION_DOT": "-0.00000008",
    "MEAN_MOTION_DDOT": "0",
    "FILE": "3894751",
    "TLE_LINE0": "0 JASON",
    "TLE_LINE1": "1 26997U 01055A   23117.46664319 -.00000008  00000-0  22274-3 0  9996",
    "TLE_LINE2": "2 26997  66.0399 309.1525 0006872 264.0077 105.4016 12.84021378  1400",
    "OBJECT_ID": "2001-055A",
    "OBJECT_NUMBER": "26997",
    "SEMIMAJOR_AXIS": "7703.481",
    "PERIOD": "112.148",
    "APOGEE": "1330.640",
    "PERIGEE": "1320.052",
    "DECAYED": "0"
  },
  {
    "COMMENT": "GENERATED VIA SPACETRACK.ORG API",
    "ORIGINATOR": "18 SPCS",
    "NORAD_CAT_ID": "26997",
    "OBJECT_NAME": "JASON",
    "OBJECT_TYPE": "PAYLOAD",
    "CLASSIFICATION_TYPE": "U",
    "INTLDES": "01055A",
    "EPOCH": "2023-04-28 06:44:30",
    "EPOCH_MICROSECONDS": "145344",
    "MEAN_MOTION": "12.84021484",
    "ECCENTRICITY": "0.0006861",
    "INCLINATION": "66.0398",
    "RA_OF_ASC_NODE": "307.4515",
    "ARG_OF_PERICENTER": "263.9893",
    "MEAN_ANOMALY": "268.9541",
    "EPHEMERIS_TYPE": "0",
    "ELEMENT_SET_NO": "999",
    "REV_AT_EPOCH": "174",
    "BSTAR": "0.0002433",
    "MEAN_MOTION_DOT": "-0.00000003",
    "MEAN_MOTION_DDOT": "0",
    "FILE": "3895496",
    "TLE_LINE0": "0 JASON",
    "TLE_LINE1": "1 26997U 01055A   23118.28090446 -.00000003  00000-0  24330-3 0  9991",
    "TLE_LINE2": "2 26997  66.0398 307.4515 0006861 263.9893 268.9541 12.84021484  1744",
    "OBJECT_ID": "2001-055A",
    "OBJECT_NUMBER": "26997",
    "SEMIMAJOR_AXIS": "7703.480",
    "PERIOD": "112.148",
    "APOGEE": "1330.631",
    "PERIGEE": "1320.060",
    "DECAYED": "0"
  },
  {
    "COMMENT": "GENERATED VIA SPACETRACK.ORG API",
    "ORIGINATOR": "18 SPCS",
    "NORAD_CAT_ID": "26997",
    "OBJECT_NAME": "JASON",
    "OBJECT_TYPE": "PAYLOAD",
    "CLASSIFICATION_TYPE": "U",
    "INTLDES": "01055A",
    "EPOCH": "2023-04-28 06:44:30",
    "EPOCH_MICROSECONDS": "145344",
    "MEAN_MOTION": "12.84021484",
    "ECCENTRICITY": "0.0006861",
    "INCLINATION": "66.0398",
    "RA_OF_ASC_NODE": "307.4515",
    "ARG_OF_PERICENTER": "263.9893",
    "MEAN_ANOMALY": "268.9541",
    "EPHEMERIS_TYPE": "0",
    "ELEMENT_SET_NO": "999",
    "REV_AT_EPOCH": "150",
    "BSTAR": "0.0002433",
    "MEAN_MOTION_DOT": "-0.00000003",
    "MEAN_MOTION_DDOT": "0",
    "FILE": "3895770",
    "TLE_LINE0": "0 JASON",
    "TLE_LINE1": "1 26997U 01055A   23118.28090446 -.00000003  00000-0  24330-3 0  9991",
    "TLE_LINE2": "2 26997  66.0398 307.4515 0006861 263.9893 268.9541 12.84021484  1508",
    "OBJECT_ID": "2001-055A",
    "OBJECT_NUMBER": "26997",
    "SEMIMAJOR_AXIS": "7703.480",
    "PERIOD": "112.148",
    "APOGEE": "1330.631",
    "PERIGEE": "1320.060",
    "DECAYED": "0"
  },
  {
    "COMMENT": "GENERATED VIA SPACETRACK.ORG API",
    "ORIGINATOR": "18 SPCS",
    "NORAD_CAT_ID": "26997",
    "OBJECT_NAME": "JASON",
    "OBJECT_TYPE": "PAYLOAD",
    "CLASSIFICATION_TYPE": "U",
    "INTLDES": "01055A",
    "EPOCH": "2023-04-29 13:55:45",
    "EPOCH_MICROSECONDS": "412608",
    "MEAN_MOTION": "12.84021592",
    "ECCENTRICITY": "0.0006856",
    "INCLINATION": "66.0399",
    "RA_OF_ASC_NODE": "304.7368",
    "ARG_OF_PERICENTER": "264.0708",
    "MEAN_ANOMALY": "155.1094",
    "EPHEMERIS_TYPE": "0",
    "ELEMENT_SET_NO": "999",
    "REV_AT_EPOCH": "167",
    "BSTAR": "0.00023055",
    "MEAN_MOTION_DOT": "-0.00000006",
    "MEAN_MOTION_DDOT": "0",
    "FILE": "3896517",
    "TLE_LINE0": "0 JASON",
    "TLE_LINE1": "1 26997U 01055A   23119.58038672 -.00000006  00000-0  23055-3 0  9994",
    "TLE_LINE2": "2 26997  66.0399 304.7368 0006856 264.0708 155.1094 12.84021592  1674",
    "OBJECT_ID": "2001-055A",
    "OBJECT_NUMBER": "26997",
    "SEMIMAJOR_AXIS": "7703.480",
    "PERIOD": "112.148",
    "APOGEE": "1330.626",
    "PERIGEE": "1320.063",
    "DECAYED": "0"
  },
  {
    "COMMENT": "GENERATED VIA SPACETRACK.ORG API",
    "ORIGINATOR": "18 SPCS",
    "NORAD_CAT_ID": "26997",
    "OBJECT_NAME": "JASON",
    "OBJECT_TYPE": "PAYLOAD",
    "CLASSIFICATION_TYPE": "U",
    "INTLDES": "01055A",
    "EPOCH": "2023-04-30 12:08:30",
    "EPOCH_MICROSECONDS": "351840",
    "MEAN_MOTION": "12.84021618",
    "ECCENTRICITY": "0.0006846",
    "INCLINATION": "66.0397",
    "RA_OF_ASC_NODE": "302.8033",
    "ARG_OF_PERICENTER": "264.0517",
    "MEAN_ANOMALY": "112.9037",
    "EPHEMERIS_TYPE": "0",
    "ELEMENT_SET_NO": "999",
    "REV_AT_EPOCH": "203",
    "BSTAR": "0.00021288",
    "MEAN_MOTION_DOT": "-0.0000001",
    "MEAN_MOTION_DDOT": "0",
    "FILE": "3897197",
    "TLE_LINE0": "0 JASON",
    "TLE_LINE1": "1 26997U 01055A   23120.50590685 -.00000010  00000-0  21288-3 0  9996",
    "TLE_LINE2": "2 26997  66.0397 302.8033 0006846 264.0517 112.9037 12.84021618  2035",
    "OBJECT_ID": "2001-055A",
    "OBJECT_NUMBER": "26997",
    "SEMIMAJOR_AXIS": "7703.480",
    "PERIOD": "112.148",
    "APOGEE": "1330.619",
    "PERIGEE": "1320.071",
    "DECAYED": "0"
  },
  {
    "COMMENT": "GENERATED VIA SPACETRACK.ORG API",
    "ORIGINATOR": "18 SPCS",
    "NORAD_CAT_ID": "26997",
    "OBJECT_NAME": "JASON",
    "OBJECT_TYPE": "PAYLOAD",
    "CLASSIFICATION_TYPE": "U",
    "INTLDES": "01055A",
    "EPOCH": "2023-04-30 14:14:19",
    "EPOCH_MICROSECONDS": "467168",
    "MEAN_MOTION": "12.84021621",
    "ECCENTRICITY": "0.0006845",
    "INCLINATION": "66.0397",
    "RA_OF_ASC_NODE": "302.6208",
    "ARG_OF_PERICENTER": "264.0443",
    "MEAN_ANOMALY": "156.7559",
    "EPHEMERIS_TYPE": "0",
    "ELEMENT_SET_NO": "999",
    "REV_AT_EPOCH": "180",
    "BSTAR": "0.00020701",
    "MEAN_MOTION_DOT": "-0.00000012",
    "MEAN_MOTION_DDOT": "0",
    "FILE": "3897442",
    "TLE_LINE0": "0 JASON",
    "TLE_LINE1": "1 26997U 01055A   23120.59328087 -.00000012  00000-0  20701-3 0  9991",
    "TLE_LINE2": "2 26997  66.0397 302.6208 0006845 264.0443 156.7559 12.84021621  1807",
    "OBJECT_ID": "2001-055A",
    "OBJECT_NUMBER": "26997",
    "SEMIMAJOR_AXIS": "7703.480",
    "PERIOD": "112.148",
    "APOGEE": "1330.618",
    "PERIGEE": "1320.072",
    "DECAYED": "0"
  },
  {
    "COMMENT": "GENERATED VIA SPACETRACK.ORG API",
    "ORIGINATOR": "18 SPCS",
    "NORAD_CAT_ID": "26997",
    "OBJECT_NAME": "JASON",
    "OBJECT_TYPE": "PAYLOAD",
    "CLASSIFICATION_TYPE": "U",
    "INTLDES": "01055A",
    "EPOCH": "2023-05-01 14:32:36",
    "EPOCH_MICROSECONDS": "299616",
    "MEAN_MOTION": "12.84021727",
    "ECCENTRICITY": "0.0006826",
    "INCLINATION": "66.0396",
    "RA_OF_ASC_NODE": "300.5052",
    "ARG_OF_PERICENTER": "264.0655",
    "MEAN_ANOMALY": "157.4346",
    "EPHEMERIS_TYPE": "0",
    "ELEMENT_SET_NO": "999",
    "REV_AT_EPOCH": "193",
    "BSTAR": "0.00019377",
    "MEAN_MOTION_DOT": "-0.00000015",
    "MEAN_MOTION_DDOT": "0",
    "FILE": "3898258",
    "TLE_LINE0": "0 JASON",
    "TLE_LINE1": "1 26997U 01055A   23121.60597569 -.00000015  00000-0  19377-3 0  9997",
    "TLE_LINE2": "2 26997  66.0396 300.5052 0006826 264.0655 157.4346 12.84021727  1937",
    "OBJECT_ID": "2001-055A",
    "OBJECT_NUMBER": "26997",
    "SEMIMAJOR_AXIS": "7703.479",
    "PERIOD": "112.148",
    "APOGEE": "1330.603",
    "PERIGEE": "1320.086",
    "DECAYED": "0"
  },
  {
    "COMMENT": "GENERATED VIA SPACETRACK.ORG API",
    "ORIGINATOR": "18 SPCS",
    "NORAD_CAT_ID": "26997",
    "OBJECT_NAME": "JASON",
    "OBJECT_TYPE": "PAYLOAD",
    "CLASSIFICATION_TYPE": "U",
    "INTLDES": "01055A",
    "EPOCH": "2023-05-01 22:16:12",
    "EPOCH_MICROSECONDS": "288000",
    "MEAN_MOTION": "12.84021725",
    "ECCENTRICITY": "0.0006826",
    "INCLINATION": "66.0395",
    "RA_OF_ASC_NODE": "299.8326",
    "ARG_OF_PERICENTER": "264.088",
    "MEAN_ANOMALY": "205.4462",
    "EPHEMERIS_TYPE": "0",
    "ELEMENT_SET_NO": "999",
    "REV_AT_EPOCH": "197",
    "BSTAR": "0.0001841",
    "MEAN_MOTION_DOT": "-0.00000017",
    "MEAN_MOTION_DDOT": "0",
    "FILE": "3898518",
    "TLE_LINE0": "0 JASON",
    "TLE_LINE1": "1 26997U 01055A   23121.92792000 -.00000017  00000-0  18410-3 0  9998",
    "TLE_LINE2": "2 26997  66.0395 299.8326 0006826 264.0880 205.4462 12.84021725  1975",
    "OBJECT_ID": "2001-055A",
    "OBJECT_NUMBER": "26997",
    "SEMIMAJOR_AXIS": "7703.479",
    "PERIOD": "112.148",
    "APOGEE": "1330.603",
    "PERIGEE": "1320.086",
    "DECAYED": "0"
  }
]